[{"OBJECT_NAME":"SKYSAT-A","OBJECT_ID":"2013-066C","EPOCH":"2026-04-25T14:33:59.361984","MEAN_MOTION":15.12661764,"ECCENTRICITY":0.0022904,"INCLINATION":97.3867,"RA_OF_ASC_NODE":166.6784,"ARG_OF_PERICENTER":133.5959,"MEAN_ANOMALY":226.7178,"EPHEMERIS_TYPE":0,"CLASSIFICATION_TYPE":"U","NORAD_CAT_ID":39418,"ELEMENT_SET_NO":999,"REV_AT_EPOCH":68053,"BSTAR":0.00018101,"MEAN_MOTION_DOT":3.121e-5,"MEAN_MOTION_DDOT":0},{"OBJECT_NAME":"SKYSAT-B","OBJECT_ID":"2014-037D","EPOCH":"2026-04-25T20:58:52.868928","MEAN_MOTION":14.87885069,"ECCENTRICITY":0.0007029,"INCLINATION":98.3799,"RA_OF_ASC_NODE":71.8768,"ARG_OF_PERICENTER":88.0192,"MEAN_ANOMALY":272.1827,"EPHEMERIS_TYPE":0,"CLASSIFICATION_TYPE":"U","NORAD_CAT_ID":40072,"ELEMENT_SET_NO":999,"REV_AT_EPOCH":63818,"BSTAR":0.00016426,"MEAN_MOTION_DOT":1.442e-5,"MEAN_MOTION_DDOT":0},{"OBJECT_NAME":"SKYSAT-C1","OBJECT_ID":"2016-040C","EPOCH":"2026-04-25T15:17:48.399936","MEAN_MOTION":15.35396532,"ECCENTRICITY":0.0002409,"INCLINATION":96.9619,"RA_OF_ASC_NODE":150.2268,"ARG_OF_PERICENTER":165.6923,"MEAN_ANOMALY":194.439,"EPHEMERIS_TYPE":0,"CLASSIFICATION_TYPE":"U","NORAD_CAT_ID":41601,"ELEMENT_SET_NO":999,"REV_AT_EPOCH":54980,"BSTAR":0.00025838,"MEAN_MOTION_DOT":8.812e-5,"MEAN_MOTION_DDOT":0},{"OBJECT_NAME":"SKYSAT-C4","OBJECT_ID":"2016-058B","EPOCH":"2026-04-25T15:21:40.688928","MEAN_MOTION":15.46935444,"ECCENTRICITY":0.0003526,"INCLINATION":96.9226,"RA_OF_ASC_NODE":139.6643,"ARG_OF_PERICENTER":96.3225,"MEAN_ANOMALY":263.8427,"EPHEMERIS_TYPE":0,"CLASSIFICATION_TYPE":"U","NORAD_CAT_ID":41771,"ELEMENT_SET_NO":999,"REV_AT_EPOCH":53734,"BSTAR":0.00031039,"MEAN_MOTION_DOT":0.00015564,"MEAN_MOTION_DDOT":0},{"OBJECT_NAME":"SKYSAT-C5","OBJECT_ID":"2016-058C","EPOCH":"2026-04-25T15:50:54.566592","MEAN_MOTION":15.33695202,"ECCENTRICITY":0.0004949,"INCLINATION":97.0528,"RA_OF_ASC_NODE":158.6595,"ARG_OF_PERICENTER":112.6688,"MEAN_ANOMALY":247.5079,"EPHEMERIS_TYPE":0,"CLASSIFICATION_TYPE":"U","NORAD_CAT_ID":41772,"ELEMENT_SET_NO":999,"REV_AT_EPOCH":53569,"BSTAR":0.00023934,"MEAN_MOTION_DOT":7.727e-5,"MEAN_MOTION_DDOT":0},{"OBJECT_NAME":"SKYSAT-C2","OBJECT_ID":"2016-058D","EPOCH":"2026-04-25T13:07:59.077920","MEAN_MOTION":15.4086427,"ECCENTRICITY":0.0001977,"INCLINATION":97.0221,"RA_OF_ASC_NODE":139.6598,"ARG_OF_PERICENTER":200.0816,"MEAN_ANOMALY":160.0354,"EPHEMERIS_TYPE":0,"CLASSIFICATION_TYPE":"U","NORAD_CAT_ID":41773,"ELEMENT_SET_NO":999,"REV_AT_EPOCH":53694,"BSTAR":0.00027884,"MEAN_MOTION_DOT":0.00011371,"MEAN_MOTION_DDOT":0},{"OBJECT_NAME":"SKYSAT-C3","OBJECT_ID":"2016-058E","EPOCH":"2026-04-25T15:21:41.952960","MEAN_MOTION":15.50341233,"ECCENTRICITY":0.0002736,"INCLINATION":96.9099,"RA_OF_ASC_NODE":148.5689,"ARG_OF_PERICENTER":103.9986,"MEAN_ANOMALY":256.1571,"EPHEMERIS_TYPE":0,"CLASSIFICATION_TYPE":"U","NORAD_CAT_ID":41774,"ELEMENT_SET_NO":999,"REV_AT_EPOCH":53796,"BSTAR":0.00037195,"MEAN_MOTION_DOT":0.00021037,"MEAN_MOTION_DDOT":0},{"OBJECT_NAME":"SKYSAT-C11","OBJECT_ID":"2017-068A","EPOCH":"2026-04-25T20:31:05.157120","MEAN_MOTION":15.55171984,"ECCENTRICITY":0.0001516,"INCLINATION":97.4284,"RA_OF_ASC_NODE":262.5396,"ARG_OF_PERICENTER":141.8945,"MEAN_ANOMALY":218.2416,"EPHEMERIS_TYPE":0,"CLASSIFICATION_TYPE":"U","NORAD_CAT_ID":42987,"ELEMENT_SET_NO":999,"REV_AT_EPOCH":47510,"BSTAR":0.00044135,"MEAN_MOTION_DOT":0.0002974,"MEAN_MOTION_DDOT":0},{"OBJECT_NAME":"SKYSAT-C10","OBJECT_ID":"2017-068B","EPOCH":"2026-04-25T20:27:13.502304","MEAN_MOTION":15.33701216,"ECCENTRICITY":0.0001626,"INCLINATION":97.4423,"RA_OF_ASC_NODE":252.251,"ARG_OF_PERICENTER":110.6604,"MEAN_ANOMALY":249.4813,"EPHEMERIS_TYPE":0,"CLASSIFICATION_TYPE":"U","NORAD_CAT_ID":42988,"ELEMENT_SET_NO":999,"REV_AT_EPOCH":47433,"BSTAR":0.00035425,"MEAN_MOTION_DOT":0.00011469,"MEAN_MOTION_DDOT":0},{"OBJECT_NAME":"SKYSAT-C9","OBJECT_ID":"2017-068C","EPOCH":"2026-04-25T19:59:12.998112","MEAN_MOTION":15.4025733,"ECCENTRICITY":0.0007625,"INCLINATION":97.4345,"RA_OF_ASC_NODE":252.6812,"ARG_OF_PERICENTER":332.2172,"MEAN_ANOMALY":27.8666,"EPHEMERIS_TYPE":0,"CLASSIFICATION_TYPE":"U","NORAD_CAT_ID":42989,"ELEMENT_SET_NO":999,"REV_AT_EPOCH":47469,"BSTAR":0.00035782,"MEAN_MOTION_DOT":0.00014334,"MEAN_MOTION_DDOT":0},{"OBJECT_NAME":"SKYSAT-C8","OBJECT_ID":"2017-068D","EPOCH":"2026-04-25T20:03:29.777184","MEAN_MOTION":15.35910651,"ECCENTRICITY":0.000117,"INCLINATION":97.4439,"RA_OF_ASC_NODE":251.8396,"ARG_OF_PERICENTER":111.5117,"MEAN_ANOMALY":248.6251,"EPHEMERIS_TYPE":0,"CLASSIFICATION_TYPE":"U","NORAD_CAT_ID":42990,"ELEMENT_SET_NO":999,"REV_AT_EPOCH":47427,"BSTAR":0.00036407,"MEAN_MOTION_DOT":0.0001265,"MEAN_MOTION_DDOT":0},{"OBJECT_NAME":"SKYSAT-C7","OBJECT_ID":"2017-068E","EPOCH":"2026-04-25T19:51:26.917632","MEAN_MOTION":15.35852589,"ECCENTRICITY":0.0004707,"INCLINATION":97.4452,"RA_OF_ASC_NODE":252.8175,"ARG_OF_PERICENTER":298.1347,"MEAN_ANOMALY":61.9421,"EPHEMERIS_TYPE":0,"CLASSIFICATION_TYPE":"U","NORAD_CAT_ID":42991,"ELEMENT_SET_NO":999,"REV_AT_EPOCH":47433,"BSTAR":0.00035687,"MEAN_MOTION_DOT":0.00012378,"MEAN_MOTION_DDOT":0},{"OBJECT_NAME":"SKYSAT-C6","OBJECT_ID":"2017-068F","EPOCH":"2026-04-25T19:53:14.635104","MEAN_MOTION":15.33516917,"ECCENTRICITY":0.0001843,"INCLINATION":97.4485,"RA_OF_ASC_NODE":252.9608,"ARG_OF_PERICENTER":4.1725,"MEAN_ANOMALY":355.9532,"EPHEMERIS_TYPE":0,"CLASSIFICATION_TYPE":"U","NORAD_CAT_ID":42992,"ELEMENT_SET_NO":999,"REV_AT_EPOCH":47429,"BSTAR":0.00034371,"MEAN_MOTION_DOT":0.0001106,"MEAN_MOTION_DDOT":0},{"OBJECT_NAME":"SKYSAT-C12","OBJECT_ID":"2018-099AR","EPOCH":"2026-04-25T19:12:08.298720","MEAN_MOTION":15.47216514,"ECCENTRICITY":0.0003596,"INCLINATION":96.9313,"RA_OF_ASC_NODE":141.1989,"ARG_OF_PERICENTER":18.4793,"MEAN_ANOMALY":341.6588,"EPHEMERIS_TYPE":0,"CLASSIFICATION_TYPE":"U","NORAD_CAT_ID":43797,"ELEMENT_SET_NO":999,"REV_AT_EPOCH":41375,"BSTAR":0.00033927,"MEAN_MOTION_DOT":0.00017189,"MEAN_MOTION_DDOT":0},{"OBJECT_NAME":"SKYSAT-C13","OBJECT_ID":"2018-099AW","EPOCH":"2026-04-25T16:03:32.285088","MEAN_MOTION":15.87299192,"ECCENTRICITY":0.0003288,"INCLINATION":96.9273,"RA_OF_ASC_NODE":163.7191,"ARG_OF_PERICENTER":96.3708,"MEAN_ANOMALY":263.7939,"EPHEMERIS_TYPE":0,"CLASSIFICATION_TYPE":"U","NORAD_CAT_ID":43802,"ELEMENT_SET_NO":999,"REV_AT_EPOCH":41459,"BSTAR":0.00053555,"MEAN_MOTION_DOT":0.0014142,"MEAN_MOTION_DDOT":0},{"OBJECT_NAME":"FLOCK 4Q-16","OBJECT_ID":"2023-174R","EPOCH":"2026-04-25T19:28:15.537216","MEAN_MOTION":15.47000135,"ECCENTRICITY":0.0005284,"INCLINATION":97.3825,"RA_OF_ASC_NODE":202.8016,"ARG_OF_PERICENTER":3.9242,"MEAN_ANOMALY":356.2048,"EPHEMERIS_TYPE":0,"CLASSIFICATION_TYPE":"U","NORAD_CAT_ID":58271,"ELEMENT_SET_NO":999,"REV_AT_EPOCH":13747,"BSTAR":0.00048394,"MEAN_MOTION_DOT":0.00024393,"MEAN_MOTION_DDOT":0},{"OBJECT_NAME":"FLOCK 4Q-11","OBJECT_ID":"2023-174T","EPOCH":"2026-04-25T16:14:08.843136","MEAN_MOTION":15.4744325,"ECCENTRICITY":0.0004957,"INCLINATION":97.3863,"RA_OF_ASC_NODE":203.2019,"ARG_OF_PERICENTER":2.4821,"MEAN_ANOMALY":357.6453,"EPHEMERIS_TYPE":0,"CLASSIFICATION_TYPE":"U","NORAD_CAT_ID":58273,"ELEMENT_SET_NO":999,"REV_AT_EPOCH":13746,"BSTAR":0.00042058,"MEAN_MOTION_DOT":0.00021505,"MEAN_MOTION_DDOT":0}]
