SKYSAT-A                
1 39418U 13066C   26115.60693706  .00003121  00000+0  18101-3 0  9993
2 39418  97.3867 166.6784 0022904 133.5959 226.7178 15.12661764680531
SKYSAT-B                
1 40072U 14037D   26115.87422302  .00001442  00000+0  16426-3 0  9993
2 40072  98.3799  71.8768 0007029  88.0192 272.1827 14.87885069638184
SKYSAT-C1               
1 41601U 16040C   26115.63736574  .00008812  00000+0  25838-3 0  9996
2 41601  96.9619 150.2268 0002409 165.6923 194.4390 15.35396532549803
SKYSAT-C4               
1 41771U 16058B   26115.64005427  .00015564  00000+0  31039-3 0  9992
2 41771  96.9226 139.6643 0003526  96.3225 263.8427 15.46935444537340
SKYSAT-C5               
1 41772U 16058C   26115.66035378  .00007727  00000+0  23934-3 0  9990
2 41772  97.0528 158.6595 0004949 112.6688 247.5079 15.33695202535699
SKYSAT-C2               
1 41773U 16058D   26115.54721155  .00011371  00000+0  27884-3 0  9991
2 41773  97.0221 139.6598 0001977 200.0816 160.0354 15.40864270536940
SKYSAT-C3               
1 41774U 16058E   26115.64006890  .00021037  00000+0  37195-3 0  9991
2 41774  96.9099 148.5689 0002736 103.9986 256.1571 15.50341233537966
SKYSAT-C11              
1 42987U 17068A   26115.85492080  .00029740  00000+0  44135-3 0  9994
2 42987  97.4284 262.5396 0001516 141.8945 218.2416 15.55171984475101
SKYSAT-C10              
1 42988U 17068B   26115.85223961  .00011469  00000+0  35425-3 0  9996
2 42988  97.4423 252.2510 0001626 110.6604 249.4813 15.33701216474333
SKYSAT-C9               
1 42989U 17068C   26115.83278933  .00014334  00000+0  35782-3 0  9994
2 42989  97.4345 252.6812 0007625 332.2172  27.8666 15.40257330474697
SKYSAT-C8               
1 42990U 17068D   26115.83576131  .00012650  00000+0  36407-3 0  9991
2 42990  97.4439 251.8396 0001170 111.5117 248.6251 15.35910651474270
SKYSAT-C7               
1 42991U 17068E   26115.82739488  .00012378  00000+0  35687-3 0  9993
2 42991  97.4452 252.8175 0004707 298.1347  61.9421 15.35852589474335
SKYSAT-C6               
1 42992U 17068F   26115.82864161  .00011060  00000+0  34371-3 0  9997
2 42992  97.4485 252.9608 0001843   4.1725 355.9532 15.33516917474291
SKYSAT-C12              
1 43797U 18099AR  26115.80009605  .00017189  00000+0  33927-3 0  9992
2 43797  96.9313 141.1989 0003596  18.4793 341.6588 15.47216514413752
SKYSAT-C13              
1 43802U 18099AW  26115.66912367  .00141420  00000+0  53555-3 0  9996
2 43802  96.9273 163.7191 0003288  96.3708 263.7939 15.87299192414592
FLOCK 4Q-16             
1 58271U 23174R   26115.81129094  .00024393  00000+0  48394-3 0  9990
2 58271  97.3825 202.8016 0005284   3.9242 356.2048 15.47000135137473
FLOCK 4Q-11             
1 58273U 23174T   26115.67649124  .00021505  00000+0  42058-3 0  9990
2 58273  97.3863 203.2019 0004957   2.4821 357.6453 15.47443250137461
